[{"OBJECT_NAME":"STARLINK-4651","OBJECT_ID":"2022-107AF","EPOCH":"2026-03-09T21:34:47.729856","MEAN_MOTION":15.08838081,"ECCENTRICITY":0.00014374,"INCLINATION":53.2171,"RA_OF_ASC_NODE":253.2905,"ARG_OF_PERICENTER":86.8831,"MEAN_ANOMALY":273.2326,"EPHEMERIS_TYPE":0,"CLASSIFICATION_TYPE":"U","NORAD_CAT_ID":53729,"ELEMENT_SET_NO":999,"REV_AT_EPOCH":19461,"BSTAR":4.0829023e-5,"MEAN_MOTION_DOT":3.62e-6,"MEAN_MOTION_DDOT":0},{"OBJECT_NAME":"FENGYUN 1C DEB","OBJECT_ID":"1999-025CDM","EPOCH":"2026-03-09T06:24:55.905408","MEAN_MOTION":15.0430028,"ECCENTRICITY":0.00202824,"INCLINATION":99.0326,"RA_OF_ASC_NODE":346.4521,"ARG_OF_PERICENTER":26.5298,"MEAN_ANOMALY":133.8427,"EPHEMERIS_TYPE":0,"CLASSIFICATION_TYPE":"U","NORAD_CAT_ID":31714,"ELEMENT_SET_NO":999,"REV_AT_EPOCH":97342,"BSTAR":0.0098433176,"MEAN_MOTION_DOT":0.00140271,"MEAN_MOTION_DDOT":0}]
